[{"OBJECT_NAME":"TAURUS-1 (JINNIUZUO 1)","OBJECT_ID":"2019-059C","EPOCH":"2026-03-09T23:11:28.459968","MEAN_MOTION":14.70821687,"ECCENTRICITY":0.00084298,"INCLINATION":98.6309,"RA_OF_ASC_NODE":227.7793,"ARG_OF_PERICENTER":257.208,"MEAN_ANOMALY":102.8183,"EPHEMERIS_TYPE":0,"CLASSIFICATION_TYPE":"U","NORAD_CAT_ID":44530,"ELEMENT_SET_NO":999,"REV_AT_EPOCH":34405,"BSTAR":0.0015963092,"MEAN_MOTION_DOT":9.715e-5,"MEAN_MOTION_DDOT":0},{"OBJECT_NAME":"COSMOS 2251 DEB","OBJECT_ID":"1993-036XR","EPOCH":"2026-03-09T04:13:24.597696","MEAN_MOTION":14.6870271,"ECCENTRICITY":0.0009288,"INCLINATION":74.0281,"RA_OF_ASC_NODE":327.1984,"ARG_OF_PERICENTER":22.4991,"MEAN_ANOMALY":130.141,"EPHEMERIS_TYPE":0,"CLASSIFICATION_TYPE":"U","NORAD_CAT_ID":34671,"ELEMENT_SET_NO":999,"REV_AT_EPOCH":89565,"BSTAR":0.0016723721,"MEAN_MOTION_DOT":9.728e-5,"MEAN_MOTION_DDOT":0}]
